{"type": "FeatureCollection", "features": [ {"type": "Feature", "properties": {"norad_id": 42741, "name": "EUTELSAT 172B", "group": "eutelsat", "lat": -0.015093156203228661, "lon": 67.82846394677915, "alt_km": 35785.50157566559, "timestamp": "2025-12-14T11:29:49.728176+00:00", "meta": {"OBJECT_NAME": "EUTELSAT 172B", "OBJECT_ID": "2017-029B", "EPOCH": "2025-12-13T14:02:28.895424", "MEAN_MOTION": 1.00270673, "ECCENTRICITY": 2.679e-05, "INCLINATION": 0.0463, "RA_OF_ASC_NODE": 139.9008, "ARG_OF_PERICENTER": 247.1462, "MEAN_ANOMALY": 78.0741, "EPHEMERIS_TYPE": 0, "CLASSIFICATION_TYPE": "U", "NORAD_CAT_ID": 42741, "ELEMENT_SET_NO": 999, "REV_AT_EPOCH": 3187, "BSTAR": 0, "MEAN_MOTION_DOT": 9e-08, "MEAN_MOTION_DDOT": 0}, "tle": {"line1": "1 42741U 17029B   25347.58505666  .00000009  00000+0  00000+0 0  9996", "line2": "2 42741   0.0463 139.9008 0000267 247.1462  78.0741  1.00270673 31876"}}, "geometry": {"type": "Point", "coordinates": [67.82846394677915, -0.015093156203228661]}}, {"type": "Feature", "properties": {"norad_id": 44334, "name": "EUTELSAT 7C", "group": "eutelsat", "lat": 0.04965158730388732, "lon": -97.15807889488799, "alt_km": 35773.17945870113, "timestamp": "2025-12-14T11:29:49.728188+00:00", "meta": {"OBJECT_NAME": "EUTELSAT 7C", "OBJECT_ID": "2019-034B", "EPOCH": "2025-12-13T15:11:40.735104", "MEAN_MOTION": 1.00271666, "ECCENTRICITY": 0.00031677, "INCLINATION": 0.0725, "RA_OF_ASC_NODE": 178.8041, "ARG_OF_PERICENTER": 67.5886, "MEAN_ANOMALY": 71.077, "EPHEMERIS_TYPE": 0, "CLASSIFICATION_TYPE": "U", "NORAD_CAT_ID": 44334, "ELEMENT_SET_NO": 999, "REV_AT_EPOCH": 497, "BSTAR": 0, "MEAN_MOTION_DOT": 6.4e-07, "MEAN_MOTION_DDOT": 0}, "tle": {"line1": "1 44334U 19034B   25347.63311036  .00000064  00000+0  00000+0 0  9997", "line2": "2 44334   0.0725 178.8041 0003167  67.5886  71.0770  1.00271666  4971"}}, "geometry": {"type": "Point", "coordinates": [-97.15807889488799, 0.04965158730388732]}}, {"type": "Feature", "properties": {"norad_id": 44624, "name": "EUTELSAT 5 WEST B", "group": "eutelsat", "lat": -0.08108729916660563, "lon": -109.16281560092833, "alt_km": 35772.3256490191, "timestamp": "2025-12-14T11:29:49.728200+00:00", "meta": {"OBJECT_NAME": "EUTELSAT 5 WEST B", "OBJECT_ID": "2019-067A", "EPOCH": "2025-12-13T15:08:18.558240", "MEAN_MOTION": 1.00272105, "ECCENTRICITY": 0.00033004, "INCLINATION": 0.0617, "RA_OF_ASC_NODE": 351.0606, "ARG_OF_PERICENTER": 272.0253, "MEAN_ANOMALY": 41.5517, "EPHEMERIS_TYPE": 0, "CLASSIFICATION_TYPE": "U", "NORAD_CAT_ID": 44624, "ELEMENT_SET_NO": 999, "REV_AT_EPOCH": 2257, "BSTAR": 0, "MEAN_MOTION_DOT": -2.7e-07, "MEAN_MOTION_DDOT": 0}, "tle": {"line1": "1 44624U 19067A   25347.63077035 -.00000027  00000+0  00000+0 0  9993", "line2": "2 44624   0.0617 351.0606 0003300 272.0253  41.5517  1.00272105 22571"}}, "geometry": {"type": "Point", "coordinates": [-109.16281560092833, -0.08108729916660563]}}, {"type": "Feature", "properties": {"norad_id": 45027, "name": "EUTELSAT KONNECT", "group": "eutelsat", "lat": -0.006925884411772792, "lon": -96.9748303749076, "alt_km": 35781.061960092615, "timestamp": "2025-12-14T11:29:49.728211+00:00", "meta": {"OBJECT_NAME": "EUTELSAT KONNECT", "OBJECT_ID": "2020-005B", "EPOCH": "2025-12-13T15:11:48.223392", "MEAN_MOTION": 1.00268961, "ECCENTRICITY": 0.00014801, "INCLINATION": 0.0706, "RA_OF_ASC_NODE": 96.3476, "ARG_OF_PERICENTER": 190.0371, "MEAN_ANOMALY": 31.3246, "EPHEMERIS_TYPE": 0, "CLASSIFICATION_TYPE": "U", "NORAD_CAT_ID": 45027, "ELEMENT_SET_NO": 999, "REV_AT_EPOCH": 2247, "BSTAR": 0, "MEAN_MOTION_DOT": 6.4e-07, "MEAN_MOTION_DDOT": 0}, "tle": {"line1": "1 45027U 20005B   25347.63319703  .00000064  00000+0  00000+0 0  9996", "line2": "2 45027   0.0706  96.3476 0001480 190.0371  31.3246  1.00268961 22479"}}, "geometry": {"type": "Point", "coordinates": [-96.9748303749076, -0.006925884411772792]}}, {"type": "Feature", "properties": {"norad_id": 49056, "name": "EUTELSAT QUANTUM", "group": "eutelsat", "lat": -0.031728491781343446, "lon": -56.42621120699731, "alt_km": 35772.23076264376, "timestamp": "2025-12-14T11:29:49.728223+00:00", "meta": {"OBJECT_NAME": "EUTELSAT QUANTUM", "OBJECT_ID": "2021-069B", "EPOCH": "2025-12-13T15:23:17.123424", "MEAN_MOTION": 1.00273236, "ECCENTRICITY": 0.00035885, "INCLINATION": 0.0246, "RA_OF_ASC_NODE": 43.9854, "ARG_OF_PERICENTER": 231.2877, "MEAN_ANOMALY": 85.8237, "EPHEMERIS_TYPE": 0, "CLASSIFICATION_TYPE": "U", "NORAD_CAT_ID": 49056, "ELEMENT_SET_NO": 999, "REV_AT_EPOCH": 1606, "BSTAR": 0, "MEAN_MOTION_DOT": 1.41e-06, "MEAN_MOTION_DDOT": 0}, "tle": {"line1": "1 49056U 21069B   25347.64117041  .00000141  00000+0  00000+0 0  9991", "line2": "2 49056   0.0246  43.9854 0003588 231.2877  85.8237  1.00273236 16065"}}, "geometry": {"type": "Point", "coordinates": [-56.42621120699731, -0.031728491781343446]}}, {"type": "Feature", "properties": {"norad_id": 53765, "name": "EUTELSAT KONNECT VHTS", "group": "eutelsat", "lat": 0.0011678695073292637, "lon": -101.43022267261671, "alt_km": 35776.3942427294, "timestamp": "2025-12-14T11:29:49.728235+00:00", "meta": {"OBJECT_NAME": "EUTELSAT KONNECT VHTS", "OBJECT_ID": "2022-110A", "EPOCH": "2025-12-12T23:45:57.918816", "MEAN_MOTION": 1.00271501, "ECCENTRICITY": 0.00023835, "INCLINATION": 0.0657, "RA_OF_ASC_NODE": 101.0037, "ARG_OF_PERICENTER": 141.1037, "MEAN_ANOMALY": 199.031, "EPHEMERIS_TYPE": 0, "CLASSIFICATION_TYPE": "U", "NORAD_CAT_ID": 53765, "ELEMENT_SET_NO": 999, "REV_AT_EPOCH": 495, "BSTAR": 0, "MEAN_MOTION_DOT": 3e-07, "MEAN_MOTION_DDOT": 0}, "tle": {"line1": "1 53765U 22110A   25346.99025369  .00000030  00000+0  00000+0 0  9996", "line2": "2 53765   0.0657 101.0037 0002383 141.1037 199.0310  1.00271501  4959"}}, "geometry": {"type": "Point", "coordinates": [-101.43022267261671, 0.0011678695073292637]}}, {"type": "Feature", "properties": {"norad_id": 54048, "name": "EUTELSAT HOTBIRD 13F", "group": "eutelsat", "lat": -0.035186997056050356, "lon": -91.18929015641078, "alt_km": 35786.573332632855, "timestamp": "2025-12-14T11:29:49.728246+00:00", "meta": {"OBJECT_NAME": "EUTELSAT HOTBIRD 13F", "OBJECT_ID": "2022-134A", "EPOCH": "2025-12-13T15:13:25.567680", "MEAN_MOTION": 1.00270384, "ECCENTRICITY": 0.00022972, "INCLINATION": 0.0478, "RA_OF_ASC_NODE": 293.4985, "ARG_OF_PERICENTER": 66.2228, "MEAN_ANOMALY": 324.1956, "EPHEMERIS_TYPE": 0, "CLASSIFICATION_TYPE": "U", "NORAD_CAT_ID": 54048, "ELEMENT_SET_NO": 999, "REV_AT_EPOCH": 1151, "BSTAR": 0, "MEAN_MOTION_DOT": 1.02e-06, "MEAN_MOTION_DDOT": 0}, "tle": {"line1": "1 54048U 22134A   25347.63432370  .00000102  00000+0  00000+0 0  9993", "line2": "2 54048   0.0478 293.4985 0002297  66.2228 324.1956  1.00270384 11511"}}, "geometry": {"type": "Point", "coordinates": [-91.18929015641078, -0.035186997056050356]}}, {"type": "Feature", "properties": {"norad_id": 54225, "name": "EUTELSAT HOTBIRD 13G", "group": "eutelsat", "lat": 0.004706159889121608, "lon": -91.14212812344103, "alt_km": 35785.493754358184, "timestamp": "2025-12-14T11:29:49.728258+00:00", "meta": {"OBJECT_NAME": "EUTELSAT HOTBIRD 13G", "OBJECT_ID": "2022-146A", "EPOCH": "2025-12-13T08:22:27.424992", "MEAN_MOTION": 1.00272446, "ECCENTRICITY": 0.00017362, "INCLINATION": 0.0478, "RA_OF_ASC_NODE": 234.0643, "ARG_OF_PERICENTER": 306.9385, "MEAN_ANOMALY": 39.8842, "EPHEMERIS_TYPE": 0, "CLASSIFICATION_TYPE": "U", "NORAD_CAT_ID": 54225, "ELEMENT_SET_NO": 999, "REV_AT_EPOCH": 560, "BSTAR": 0, "MEAN_MOTION_DOT": 1.01e-06, "MEAN_MOTION_DDOT": 0}, "tle": {"line1": "1 54225U 22146A   25347.34892853  .00000101  00000+0  00000+0 0  9996", "line2": "2 54225   0.0478 234.0643 0001736 306.9385  39.8842  1.00272446  5603"}}, "geometry": {"type": "Point", "coordinates": [-91.14212812344103, 0.004706159889121608]}}, {"type": "Feature", "properties": {"norad_id": 54259, "name": "EUTELSAT 10B", "group": "eutelsat", "lat": -0.008960461952789928, "lon": -94.18729706156226, "alt_km": 35787.459982522145, "timestamp": "2025-12-14T11:29:49.728270+00:00", "meta": {"OBJECT_NAME": "EUTELSAT 10B", "OBJECT_ID": "2022-157A", "EPOCH": "2025-12-12T23:47:57.727104", "MEAN_MOTION": 1.00270562, "ECCENTRICITY": 6.838e-05, "INCLINATION": 0.062, "RA_OF_ASC_NODE": 99.0663, "ARG_OF_PERICENTER": 52.9272, "MEAN_ANOMALY": 296.8936, "EPHEMERIS_TYPE": 0, "CLASSIFICATION_TYPE": "U", "NORAD_CAT_ID": 54259, "ELEMENT_SET_NO": 999, "REV_AT_EPOCH": 1116, "BSTAR": 0, "MEAN_MOTION_DOT": 8.1e-07, "MEAN_MOTION_DDOT": 0}, "tle": {"line1": "1 54259U 22157A   25346.99164036  .00000081  00000+0  00000+0 0  9997", "line2": "2 54259   0.0620  99.0663 0000683  52.9272 296.8936  1.00270562 11167"}}, "geometry": {"type": "Point", "coordinates": [-94.18729706156226, -0.008960461952789928]}}, {"type": "Feature", "properties": {"norad_id": 59346, "name": "EUTELSAT 36D", "group": "eutelsat", "lat": -0.0312569720357347, "lon": -68.33658080504276, "alt_km": 35785.296390997115, "timestamp": "2025-12-14T11:29:49.728281+00:00", "meta": {"OBJECT_NAME": "EUTELSAT 36D", "OBJECT_ID": "2024-059A", "EPOCH": "2025-12-12T22:12:41.090112", "MEAN_MOTION": 1.00269446, "ECCENTRICITY": 6.864e-05, "INCLINATION": 0.0196, "RA_OF_ASC_NODE": 350.3258, "ARG_OF_PERICENTER": 5.8335, "MEAN_ANOMALY": 94.714, "EPHEMERIS_TYPE": 0, "CLASSIFICATION_TYPE": "U", "NORAD_CAT_ID": 59346, "ELEMENT_SET_NO": 999, "REV_AT_EPOCH": 628, "BSTAR": 0, "MEAN_MOTION_DOT": 0, "MEAN_MOTION_DDOT": 0}, "tle": {"line1": "1 59346U 24059A   25346.92547558  .00000000  00000+0  00000+0 0  9990", "line2": "2 59346   0.0196 350.3258 0000686   5.8335  94.7140  1.00269446  6288"}}, "geometry": {"type": "Point", "coordinates": [-68.33658080504276, -0.0312569720357347]}}]}